{"fetched_at":"2026-03-29T16:36:15Z","count":15609,"tles":[{"name":"STARLINK-33739","line1":"1 63572U 25076D   26087.76368825  .00021233  00000+0  77827-3 0  9995","line2":"2 63572  43.0000 214.3138 0001377 266.9940  93.0754 15.27606781 54749","category":"Starlink"}]}